[{"OBJECT_NAME":"BEIDOU-3 G4 (C62)","OBJECT_ID":"2023-066A","EPOCH":"2026-04-26T22:47:19.192416","MEAN_MOTION":1.00272365,"ECCENTRICITY":0.00028173,"INCLINATION":0.557,"RA_OF_ASC_NODE":320.0464,"ARG_OF_PERICENTER":160.5187,"MEAN_ANOMALY":216.2962,"EPHEMERIS_TYPE":0,"CLASSIFICATION_TYPE":"U","NORAD_CAT_ID":56564,"ELEMENT_SET_NO":999,"REV_AT_EPOCH":1088,"BSTAR":0,"MEAN_MOTION_DOT":-2.93e-6,"MEAN_MOTION_DDOT":0},{"OBJECT_NAME":"NVS-01 (IRNSS-1J)","OBJECT_ID":"2023-076A","EPOCH":"2026-04-26T22:44:19.478688","MEAN_MOTION":1.00268358,"ECCENTRICITY":0.00054154,"INCLINATION":2.2866,"RA_OF_ASC_NODE":246.5561,"ARG_OF_PERICENTER":50.0595,"MEAN_ANOMALY":28.9266,"EPHEMERIS_TYPE":0,"CLASSIFICATION_TYPE":"U","NORAD_CAT_ID":56759,"ELEMENT_SET_NO":999,"REV_AT_EPOCH":1060,"BSTAR":0,"MEAN_MOTION_DOT":-3.49e-6,"MEAN_MOTION_DDOT":0},{"OBJECT_NAME":"COSMOS 2569 (703K)","OBJECT_ID":"2023-114A","EPOCH":"2026-04-26T15:14:27.042144","MEAN_MOTION":2.13103767,"ECCENTRICITY":0.00124057,"INCLINATION":65.2747,"RA_OF_ASC_NODE":74.3578,"ARG_OF_PERICENTER":295.3839,"MEAN_ANOMALY":64.465,"EPHEMERIS_TYPE":0,"CLASSIFICATION_TYPE":"U","NORAD_CAT_ID":57517,"ELEMENT_SET_NO":999,"REV_AT_EPOCH":2116,"BSTAR":0,"MEAN_MOTION_DOT":2.0e-8,"MEAN_MOTION_DDOT":0},{"OBJECT_NAME":"BEIDOU-3 M28 (C50)","OBJECT_ID":"2023-207A","EPOCH":"2026-04-26T18:01:45.497856","MEAN_MOTION":1.86229709,"ECCENTRICITY":0.00046007,"INCLINATION":55.7097,"RA_OF_ASC_NODE":64.0374,"ARG_OF_PERICENTER":323.2817,"MEAN_ANOMALY":36.6572,"EPHEMERIS_TYPE":0,"CLASSIFICATION_TYPE":"U","NORAD_CAT_ID":58654,"ELEMENT_SET_NO":999,"REV_AT_EPOCH":1588,"BSTAR":0,"MEAN_MOTION_DOT":-4.4e-7,"MEAN_MOTION_DDOT":0},{"OBJECT_NAME":"BEIDOU-3 M26 (C48)","OBJECT_ID":"2023-207B","EPOCH":"2026-04-26T00:16:56.147808","MEAN_MOTION":1.86229668,"ECCENTRICITY":0.00049779,"INCLINATION":55.711,"RA_OF_ASC_NODE":64.0489,"ARG_OF_PERICENTER":305.0678,"MEAN_ANOMALY":54.8583,"EPHEMERIS_TYPE":0,"CLASSIFICATION_TYPE":"U","NORAD_CAT_ID":58655,"ELEMENT_SET_NO":999,"REV_AT_EPOCH":1585,"BSTAR":0,"MEAN_MOTION_DOT":-3.7e-7,"MEAN_MOTION_DDOT":0},{"OBJECT_NAME":"GSAT0225 (GALILEO 29)","OBJECT_ID":"2024-079A","EPOCH":"2026-04-26T12:18:05.867424","MEAN_MOTION":1.70474393,"ECCENTRICITY":0.00026444,"INCLINATION":55.0873,"RA_OF_ASC_NODE":102.5222,"ARG_OF_PERICENTER":283.706,"MEAN_ANOMALY":268.0228,"EPHEMERIS_TYPE":0,"CLASSIFICATION_TYPE":"U","NORAD_CAT_ID":59598,"ELEMENT_SET_NO":999,"REV_AT_EPOCH":1243,"BSTAR":0,"MEAN_MOTION_DOT":4.3e-7,"MEAN_MOTION_DDOT":0},{"OBJECT_NAME":"GSAT0227 (GALILEO 30)","OBJECT_ID":"2024-079C","EPOCH":"2026-04-26T09:12:19.374912","MEAN_MOTION":1.7047439,"ECCENTRICITY":0.00012098,"INCLINATION":55.0823,"RA_OF_ASC_NODE":102.5246,"ARG_OF_PERICENTER":13.3906,"MEAN_ANOMALY":346.6071,"EPHEMERIS_TYPE":0,"CLASSIFICATION_TYPE":"U","NORAD_CAT_ID":59600,"ELEMENT_SET_NO":999,"REV_AT_EPOCH":1248,"BSTAR":0,"MEAN_MOTION_DOT":4.3e-7,"MEAN_MOTION_DDOT":0},{"OBJECT_NAME":"GSAT0232 (GALILEO 32)","OBJECT_ID":"2024-167A","EPOCH":"2026-04-25T10:48:14.679360","MEAN_MOTION":1.70474394,"ECCENTRICITY":0.00048449,"INCLINATION":55.2008,"RA_OF_ASC_NODE":222.7596,"ARG_OF_PERICENTER":214.4336,"MEAN_ANOMALY":148.2272,"EPHEMERIS_TYPE":0,"CLASSIFICATION_TYPE":"U","NORAD_CAT_ID":61182,"ELEMENT_SET_NO":999,"REV_AT_EPOCH":998,"BSTAR":0,"MEAN_MOTION_DOT":-3.7e-7,"MEAN_MOTION_DDOT":0},{"OBJECT_NAME":"GSAT0226 (GALILEO 31)","OBJECT_ID":"2024-167B","EPOCH":"2026-04-26T11:26:28.361760","MEAN_MOTION":1.70474411,"ECCENTRICITY":0.0001799,"INCLINATION":55.1991,"RA_OF_ASC_NODE":222.7387,"ARG_OF_PERICENTER":194.9223,"MEAN_ANOMALY":169.0997,"EPHEMERIS_TYPE":0,"CLASSIFICATION_TYPE":"U","NORAD_CAT_ID":61183,"ELEMENT_SET_NO":999,"REV_AT_EPOCH":997,"BSTAR":0,"MEAN_MOTION_DOT":-3.9e-7,"MEAN_MOTION_DDOT":0},{"OBJECT_NAME":"BEIDOU-3 M25 (C47)","OBJECT_ID":"2024-168B","EPOCH":"2026-04-26T15:28:52.012416","MEAN_MOTION":1.86230074,"ECCENTRICITY":0.00032737,"INCLINATION":54.5199,"RA_OF_ASC_NODE":304.032,"ARG_OF_PERICENTER":319.3255,"MEAN_ANOMALY":222.3612,"EPHEMERIS_TYPE":0,"CLASSIFICATION_TYPE":"U","NORAD_CAT_ID":61186,"ELEMENT_SET_NO":999,"REV_AT_EPOCH":1082,"BSTAR":0,"MEAN_MOTION_DOT":-6.0e-7,"MEAN_MOTION_DDOT":0},{"OBJECT_NAME":"BEIDOU-3 M27 (C49)","OBJECT_ID":"2024-168C","EPOCH":"2026-04-26T10:41:40.860384","MEAN_MOTION":1.86230164,"ECCENTRICITY":0.00026067,"INCLINATION":54.5157,"RA_OF_ASC_NODE":304.022,"ARG_OF_PERICENTER":40.2709,"MEAN_ANOMALY":142.718,"EPHEMERIS_TYPE":0,"CLASSIFICATION_TYPE":"U","NORAD_CAT_ID":61187,"ELEMENT_SET_NO":999,"REV_AT_EPOCH":829,"BSTAR":0,"MEAN_MOTION_DOT":-5.8e-7,"MEAN_MOTION_DDOT":0},{"OBJECT_NAME":"GPS BIII-7  (PRN 01)","OBJECT_ID":"2024-242A","EPOCH":"2026-04-26T05:41:38.583168","MEAN_MOTION":2.00570556,"ECCENTRICITY":0.00168326,"INCLINATION":54.8705,"RA_OF_ASC_NODE":336.2872,"ARG_OF_PERICENTER":0.5482,"MEAN_ANOMALY":176.6523,"EPHEMERIS_TYPE":0,"CLASSIFICATION_TYPE":"U","NORAD_CAT_ID":62339,"ELEMENT_SET_NO":999,"REV_AT_EPOCH":1021,"BSTAR":0,"MEAN_MOTION_DOT":-8.5e-7,"MEAN_MOTION_DDOT":0},{"OBJECT_NAME":"NVS-02 (IRNSS-1K)","OBJECT_ID":"2025-020A","EPOCH":"2026-04-26T13:35:38.202432","MEAN_MOTION":2.17876983,"ECCENTRICITY":0.7348841,"INCLINATION":20.792,"RA_OF_ASC_NODE":278.1255,"ARG_OF_PERICENTER":115.0158,"MEAN_ANOMALY":334.4623,"EPHEMERIS_TYPE":0,"CLASSIFICATION_TYPE":"U","NORAD_CAT_ID":62850,"ELEMENT_SET_NO":999,"REV_AT_EPOCH":985,"BSTAR":0.001286,"MEAN_MOTION_DOT":1.566e-5,"MEAN_MOTION_DDOT":0},{"OBJECT_NAME":"QZS-6 (QZSS/PRN 200)","OBJECT_ID":"2025-023A","EPOCH":"2026-04-26T22:37:21.669888","MEAN_MOTION":1.00271527,"ECCENTRICITY":0.00027017,"INCLINATION":0.0133,"RA_OF_ASC_NODE":72.343,"ARG_OF_PERICENTER":332.9496,"MEAN_ANOMALY":239.4689,"EPHEMERIS_TYPE":0,"CLASSIFICATION_TYPE":"U","NORAD_CAT_ID":62876,"ELEMENT_SET_NO":999,"REV_AT_EPOCH":444,"BSTAR":0,"MEAN_MOTION_DOT":0,"MEAN_MOTION_DDOT":0},{"OBJECT_NAME":"COSMOS 2584 (704K)","OBJECT_ID":"2025-042A","EPOCH":"2026-04-25T02:44:24.045216","MEAN_MOTION":2.13103596,"ECCENTRICITY":0.00067908,"INCLINATION":65.056,"RA_OF_ASC_NODE":74.6052,"ARG_OF_PERICENTER":237.6695,"MEAN_ANOMALY":122.2461,"EPHEMERIS_TYPE":0,"CLASSIFICATION_TYPE":"U","NORAD_CAT_ID":63130,"ELEMENT_SET_NO":999,"REV_AT_EPOCH":891,"BSTAR":0,"MEAN_MOTION_DOT":1.6e-7,"MEAN_MOTION_DDOT":0},{"OBJECT_NAME":"GPS BIII-8  (PRN 21)","OBJECT_ID":"2025-116A","EPOCH":"2026-04-23T05:49:38.568864","MEAN_MOTION":2.00549673,"ECCENTRICITY":0.00091244,"INCLINATION":55.1985,"RA_OF_ASC_NODE":33.3417,"ARG_OF_PERICENTER":335.2523,"MEAN_ANOMALY":22.0569,"EPHEMERIS_TYPE":0,"CLASSIFICATION_TYPE":"U","NORAD_CAT_ID":64202,"ELEMENT_SET_NO":999,"REV_AT_EPOCH":676,"BSTAR":0,"MEAN_MOTION_DOT":-8.1e-7,"MEAN_MOTION_DDOT":0},{"OBJECT_NAME":"COSMOS 2596 (708K)","OBJECT_ID":"2025-206B","EPOCH":"2026-04-26T03:19:35.330304","MEAN_MOTION":2.13100475,"ECCENTRICITY":0.00115765,"INCLINATION":64.6645,"RA_OF_ASC_NODE":316.797,"ARG_OF_PERICENTER":316.957,"MEAN_ANOMALY":225.8124,"EPHEMERIS_TYPE":0,"CLASSIFICATION_TYPE":"U","NORAD_CAT_ID":65590,"ELEMENT_SET_NO":999,"REV_AT_EPOCH":480,"BSTAR":0,"MEAN_MOTION_DOT":-2.9e-7,"MEAN_MOTION_DDOT":0}]
